KUIPER-00027            
1 63740U 25088S   25200.88447477  .00015109  00000+0  40786-3 0  9994
2 63740  51.8719  61.9567 0002087  76.8209 283.3011 15.37969332 12904
KUIPER-00028            
1 63741U 25088T   25200.87613116  .00013432  00000+0  36261-3 0  9999
2 63741  51.8715  61.8984 0001874  60.5438 299.5736 15.38073704 13319
KUIPER-00029            
1 63742U 25088U   25200.34004541  .00008864  00000+0  25266-3 0  9994
2 63742  51.8701  65.0368 0005220  55.4065 304.7414 15.36844490 12750
KUIPER-00030            
1 63743U 25088V   25200.91668981 -.00006808  00000+0 -31783-3 0  9991
2 63743  51.8831  64.9177 0011194  36.2918  79.1298 15.17658357  5818
KUIPER-00031            
1 63744U 25088W   25200.89720437  .00011654  00000+0  32123-3 0  9996
2 63744  51.8699  62.0309 0004165  53.0737 307.0631 15.37564616 12844
KUIPER-00032            
1 63745U 25088X   25200.91274285  .00012714  00000+0  35219-3 0  9992
2 63745  51.8690  62.1240 0004921  43.6012 316.5363 15.37319216 13844
KUIPER-00033            
1 63746U 25088Y   25200.04099945 -.00023878  00000+0 -31263-2 0  9994
2 63746  51.9030  79.7849 0003203 123.2688 236.8581 14.79767267 13001
KUIPER-00034            
1 63747U 25088Z   25200.87905826  .00011486  00000+0  31542-3 0  9991
2 63747  51.8724  61.9201 0002285  70.4026 289.7207 15.37699663 13005
