<?xml version="1.0" encoding="UTF-8"?>
<ndm xmlns:xsi="http://www.w3.org/2001/XMLSchema-instance" xsi:noNamespaceSchemaLocation="https://sanaregistry.org/r/ndmxml_unqualified/ndmxml-2.0.0-master-2.0.xsd">
<omm id="CCSDS_OMM_VERS" version="2.0">
<header><CREATION_DATE/><ORIGINATOR/></header><body><segment><metadata><OBJECT_NAME>KUIPER-00027</OBJECT_NAME><OBJECT_ID>2025-088S</OBJECT_ID><CENTER_NAME>EARTH</CENTER_NAME><REF_FRAME>TEME</REF_FRAME><TIME_SYSTEM>UTC</TIME_SYSTEM><MEAN_ELEMENT_THEORY>SGP4</MEAN_ELEMENT_THEORY></metadata><data><meanElements><EPOCH>2025-07-19T21:13:38.620128</EPOCH><MEAN_MOTION>15.37969332</MEAN_MOTION><ECCENTRICITY>.0002087</ECCENTRICITY><INCLINATION>51.8719</INCLINATION><RA_OF_ASC_NODE>61.9567</RA_OF_ASC_NODE><ARG_OF_PERICENTER>76.8209</ARG_OF_PERICENTER><MEAN_ANOMALY>283.3011</MEAN_ANOMALY></meanElements><tleParameters><EPHEMERIS_TYPE>0</EPHEMERIS_TYPE><CLASSIFICATION_TYPE>U</CLASSIFICATION_TYPE><NORAD_CAT_ID>63740</NORAD_CAT_ID><ELEMENT_SET_NO>999</ELEMENT_SET_NO><REV_AT_EPOCH>1290</REV_AT_EPOCH><BSTAR>.40786E-3</BSTAR><MEAN_MOTION_DOT>.15109E-3</MEAN_MOTION_DOT><MEAN_MOTION_DDOT>0</MEAN_MOTION_DDOT></tleParameters></data></segment></body></omm>
<omm id="CCSDS_OMM_VERS" version="2.0">
<header><CREATION_DATE/><ORIGINATOR/></header><body><segment><metadata><OBJECT_NAME>KUIPER-00028</OBJECT_NAME><OBJECT_ID>2025-088T</OBJECT_ID><CENTER_NAME>EARTH</CENTER_NAME><REF_FRAME>TEME</REF_FRAME><TIME_SYSTEM>UTC</TIME_SYSTEM><MEAN_ELEMENT_THEORY>SGP4</MEAN_ELEMENT_THEORY></metadata><data><meanElements><EPOCH>2025-07-19T21:01:37.732224</EPOCH><MEAN_MOTION>15.38073704</MEAN_MOTION><ECCENTRICITY>.0001874</ECCENTRICITY><INCLINATION>51.8715</INCLINATION><RA_OF_ASC_NODE>61.8984</RA_OF_ASC_NODE><ARG_OF_PERICENTER>60.5438</ARG_OF_PERICENTER><MEAN_ANOMALY>299.5736</MEAN_ANOMALY></meanElements><tleParameters><EPHEMERIS_TYPE>0</EPHEMERIS_TYPE><CLASSIFICATION_TYPE>U</CLASSIFICATION_TYPE><NORAD_CAT_ID>63741</NORAD_CAT_ID><ELEMENT_SET_NO>999</ELEMENT_SET_NO><REV_AT_EPOCH>1331</REV_AT_EPOCH><BSTAR>.36261E-3</BSTAR><MEAN_MOTION_DOT>.13432E-3</MEAN_MOTION_DOT><MEAN_MOTION_DDOT>0</MEAN_MOTION_DDOT></tleParameters></data></segment></body></omm>
<omm id="CCSDS_OMM_VERS" version="2.0">
<header><CREATION_DATE/><ORIGINATOR/></header><body><segment><metadata><OBJECT_NAME>KUIPER-00029</OBJECT_NAME><OBJECT_ID>2025-088U</OBJECT_ID><CENTER_NAME>EARTH</CENTER_NAME><REF_FRAME>TEME</REF_FRAME><TIME_SYSTEM>UTC</TIME_SYSTEM><MEAN_ELEMENT_THEORY>SGP4</MEAN_ELEMENT_THEORY></metadata><data><meanElements><EPOCH>2025-07-19T08:09:39.923424</EPOCH><MEAN_MOTION>15.36844490</MEAN_MOTION><ECCENTRICITY>.000522</ECCENTRICITY><INCLINATION>51.8701</INCLINATION><RA_OF_ASC_NODE>65.0368</RA_OF_ASC_NODE><ARG_OF_PERICENTER>55.4065</ARG_OF_PERICENTER><MEAN_ANOMALY>304.7414</MEAN_ANOMALY></meanElements><tleParameters><EPHEMERIS_TYPE>0</EPHEMERIS_TYPE><CLASSIFICATION_TYPE>U</CLASSIFICATION_TYPE><NORAD_CAT_ID>63742</NORAD_CAT_ID><ELEMENT_SET_NO>999</ELEMENT_SET_NO><REV_AT_EPOCH>1275</REV_AT_EPOCH><BSTAR>.25266E-3</BSTAR><MEAN_MOTION_DOT>.8864E-4</MEAN_MOTION_DOT><MEAN_MOTION_DDOT>0</MEAN_MOTION_DDOT></tleParameters></data></segment></body></omm>
<omm id="CCSDS_OMM_VERS" version="2.0">
<header><CREATION_DATE/><ORIGINATOR/></header><body><segment><metadata><OBJECT_NAME>KUIPER-00030</OBJECT_NAME><OBJECT_ID>2025-088V</OBJECT_ID><CENTER_NAME>EARTH</CENTER_NAME><REF_FRAME>TEME</REF_FRAME><TIME_SYSTEM>UTC</TIME_SYSTEM><MEAN_ELEMENT_THEORY>SGP4</MEAN_ELEMENT_THEORY></metadata><data><meanElements><EPOCH>2025-07-19T22:00:01.999584</EPOCH><MEAN_MOTION>15.17658357</MEAN_MOTION><ECCENTRICITY>.0011194</ECCENTRICITY><INCLINATION>51.8831</INCLINATION><RA_OF_ASC_NODE>64.9177</RA_OF_ASC_NODE><ARG_OF_PERICENTER>36.2918</ARG_OF_PERICENTER><MEAN_ANOMALY>79.1298</MEAN_ANOMALY></meanElements><tleParameters><EPHEMERIS_TYPE>0</EPHEMERIS_TYPE><CLASSIFICATION_TYPE>U</CLASSIFICATION_TYPE><NORAD_CAT_ID>63743</NORAD_CAT_ID><ELEMENT_SET_NO>999</ELEMENT_SET_NO><REV_AT_EPOCH>581</REV_AT_EPOCH><BSTAR>-.31783E-3</BSTAR><MEAN_MOTION_DOT>-.6808E-4</MEAN_MOTION_DOT><MEAN_MOTION_DDOT>0</MEAN_MOTION_DDOT></tleParameters></data></segment></body></omm>
<omm id="CCSDS_OMM_VERS" version="2.0">
<header><CREATION_DATE/><ORIGINATOR/></header><body><segment><metadata><OBJECT_NAME>KUIPER-00031</OBJECT_NAME><OBJECT_ID>2025-088W</OBJECT_ID><CENTER_NAME>EARTH</CENTER_NAME><REF_FRAME>TEME</REF_FRAME><TIME_SYSTEM>UTC</TIME_SYSTEM><MEAN_ELEMENT_THEORY>SGP4</MEAN_ELEMENT_THEORY></metadata><data><meanElements><EPOCH>2025-07-19T21:31:58.457568</EPOCH><MEAN_MOTION>15.37564616</MEAN_MOTION><ECCENTRICITY>.0004165</ECCENTRICITY><INCLINATION>51.8699</INCLINATION><RA_OF_ASC_NODE>62.0309</RA_OF_ASC_NODE><ARG_OF_PERICENTER>53.0737</ARG_OF_PERICENTER><MEAN_ANOMALY>307.0631</MEAN_ANOMALY></meanElements><tleParameters><EPHEMERIS_TYPE>0</EPHEMERIS_TYPE><CLASSIFICATION_TYPE>U</CLASSIFICATION_TYPE><NORAD_CAT_ID>63744</NORAD_CAT_ID><ELEMENT_SET_NO>999</ELEMENT_SET_NO><REV_AT_EPOCH>1284</REV_AT_EPOCH><BSTAR>.32123E-3</BSTAR><MEAN_MOTION_DOT>.11654E-3</MEAN_MOTION_DOT><MEAN_MOTION_DDOT>0</MEAN_MOTION_DDOT></tleParameters></data></segment></body></omm>
<omm id="CCSDS_OMM_VERS" version="2.0">
<header><CREATION_DATE/><ORIGINATOR/></header><body><segment><metadata><OBJECT_NAME>KUIPER-00032</OBJECT_NAME><OBJECT_ID>2025-088X</OBJECT_ID><CENTER_NAME>EARTH</CENTER_NAME><REF_FRAME>TEME</REF_FRAME><TIME_SYSTEM>UTC</TIME_SYSTEM><MEAN_ELEMENT_THEORY>SGP4</MEAN_ELEMENT_THEORY></metadata><data><meanElements><EPOCH>2025-07-19T21:54:20.982240</EPOCH><MEAN_MOTION>15.37319216</MEAN_MOTION><ECCENTRICITY>.0004921</ECCENTRICITY><INCLINATION>51.8690</INCLINATION><RA_OF_ASC_NODE>62.1240</RA_OF_ASC_NODE><ARG_OF_PERICENTER>43.6012</ARG_OF_PERICENTER><MEAN_ANOMALY>316.5363</MEAN_ANOMALY></meanElements><tleParameters><EPHEMERIS_TYPE>0</EPHEMERIS_TYPE><CLASSIFICATION_TYPE>U</CLASSIFICATION_TYPE><NORAD_CAT_ID>63745</NORAD_CAT_ID><ELEMENT_SET_NO>999</ELEMENT_SET_NO><REV_AT_EPOCH>1384</REV_AT_EPOCH><BSTAR>.35219E-3</BSTAR><MEAN_MOTION_DOT>.12714E-3</MEAN_MOTION_DOT><MEAN_MOTION_DDOT>0</MEAN_MOTION_DDOT></tleParameters></data></segment></body></omm>
<omm id="CCSDS_OMM_VERS" version="2.0">
<header><CREATION_DATE/><ORIGINATOR/></header><body><segment><metadata><OBJECT_NAME>KUIPER-00033</OBJECT_NAME><OBJECT_ID>2025-088Y</OBJECT_ID><CENTER_NAME>EARTH</CENTER_NAME><REF_FRAME>TEME</REF_FRAME><TIME_SYSTEM>UTC</TIME_SYSTEM><MEAN_ELEMENT_THEORY>SGP4</MEAN_ELEMENT_THEORY></metadata><data><meanElements><EPOCH>2025-07-19T00:59:02.352480</EPOCH><MEAN_MOTION>14.79767267</MEAN_MOTION><ECCENTRICITY>.0003203</ECCENTRICITY><INCLINATION>51.9030</INCLINATION><RA_OF_ASC_NODE>79.7849</RA_OF_ASC_NODE><ARG_OF_PERICENTER>123.2688</ARG_OF_PERICENTER><MEAN_ANOMALY>236.8581</MEAN_ANOMALY></meanElements><tleParameters><EPHEMERIS_TYPE>0</EPHEMERIS_TYPE><CLASSIFICATION_TYPE>U</CLASSIFICATION_TYPE><NORAD_CAT_ID>63746</NORAD_CAT_ID><ELEMENT_SET_NO>999</ELEMENT_SET_NO><REV_AT_EPOCH>1300</REV_AT_EPOCH><BSTAR>-.31263E-2</BSTAR><MEAN_MOTION_DOT>-.23878E-3</MEAN_MOTION_DOT><MEAN_MOTION_DDOT>0</MEAN_MOTION_DDOT></tleParameters></data></segment></body></omm>
<omm id="CCSDS_OMM_VERS" version="2.0">
<header><CREATION_DATE/><ORIGINATOR/></header><body><segment><metadata><OBJECT_NAME>KUIPER-00034</OBJECT_NAME><OBJECT_ID>2025-088Z</OBJECT_ID><CENTER_NAME>EARTH</CENTER_NAME><REF_FRAME>TEME</REF_FRAME><TIME_SYSTEM>UTC</TIME_SYSTEM><MEAN_ELEMENT_THEORY>SGP4</MEAN_ELEMENT_THEORY></metadata><data><meanElements><EPOCH>2025-07-19T21:05:50.633664</EPOCH><MEAN_MOTION>15.37699663</MEAN_MOTION><ECCENTRICITY>.0002285</ECCENTRICITY><INCLINATION>51.8724</INCLINATION><RA_OF_ASC_NODE>61.9201</RA_OF_ASC_NODE><ARG_OF_PERICENTER>70.4026</ARG_OF_PERICENTER><MEAN_ANOMALY>289.7207</MEAN_ANOMALY></meanElements><tleParameters><EPHEMERIS_TYPE>0</EPHEMERIS_TYPE><CLASSIFICATION_TYPE>U</CLASSIFICATION_TYPE><NORAD_CAT_ID>63747</NORAD_CAT_ID><ELEMENT_SET_NO>999</ELEMENT_SET_NO><REV_AT_EPOCH>1300</REV_AT_EPOCH><BSTAR>.31542E-3</BSTAR><MEAN_MOTION_DOT>.11486E-3</MEAN_MOTION_DOT><MEAN_MOTION_DDOT>0</MEAN_MOTION_DDOT></tleParameters></data></segment></body></omm>

</ndm>
